[{"OBJECT_NAME":"STARLINK-4323","OBJECT_ID":"2022-077AC","EPOCH":"2026-03-09T22:26:55.446144","MEAN_MOTION":15.01248487,"ECCENTRICITY":0.00036931,"INCLINATION":97.6018,"RA_OF_ASC_NODE":250.447,"ARG_OF_PERICENTER":169.7375,"MEAN_ANOMALY":190.3925,"EPHEMERIS_TYPE":0,"CLASSIFICATION_TYPE":"U","NORAD_CAT_ID":53069,"ELEMENT_SET_NO":999,"REV_AT_EPOCH":20095,"BSTAR":8.992699e-5,"MEAN_MOTION_DOT":1.097e-5,"MEAN_MOTION_DDOT":0},{"OBJECT_NAME":"COSMOS 2251 DEB","OBJECT_ID":"1993-036AXJ","EPOCH":"2026-03-07T16:14:39.475392","MEAN_MOTION":15.02350149,"ECCENTRICITY":0.00052276,"INCLINATION":74.0329,"RA_OF_ASC_NODE":161.7612,"ARG_OF_PERICENTER":248.7206,"MEAN_ANOMALY":111.3424,"EPHEMERIS_TYPE":0,"CLASSIFICATION_TYPE":"U","NORAD_CAT_ID":36047,"ELEMENT_SET_NO":999,"REV_AT_EPOCH":67212,"BSTAR":0.0041103158,"MEAN_MOTION_DOT":0.00054783,"MEAN_MOTION_DDOT":0}]
